start=new Date('2022-06-11T00:00:00.000Z').valueOf();
sats=[{"APOAPSIS":"548.424","MEAN_MOTION_DDOT":"0.0000000000000","MEAN_ANOMALY":"307.6392","SITE":"AFETR","GP_ID":"205861447","CLASSIFICATION_TYPE":"U","ARG_OF_PERICENTER":"52.4756","SEMIMAJOR_AXIS":"6925.349","EPHEMERIS_TYPE":"0","MEAN_ELEMENT_THEORY":"SGP4","INCLINATION":"53.0542","ELEMENT_SET_NO":"999","FILE":"3490466","PERIAPSIS":"546.004","REF_FRAME":"TEME","MEAN_MOTION_DOT":"-0.00000492","TLE_LINE2":"2 45534  53.0542 127.1387 0001747  52.4756 307.6392 15.06399820118923","NORAD_CAT_ID":"45534","BSTAR":"-0.00001410200000","PERIOD":"95.592","LAUNCH_DATE":"2020-04-22","TLE_LINE1":"1 45534U 20025D   22161.83813204 -.00000492  00000-0 -14102-4 0  9990","OBJECT_NAME":"STARLINK-1341","ECCENTRICITY":"0.00017470","COUNTRY_CODE":"US","OBJECT_TYPE":"PAYLOAD","DECAY_DATE":null,"EPOCH":"2022-06-10T20:06:54.608256","REV_AT_EPOCH":"11892","TIME_SYSTEM":"UTC","CENTER_NAME":"EARTH","RCS_SIZE":"LARGE","OBJECT_ID":"2020-025D","MEAN_MOTION":"15.06399820","RA_OF_ASC_NODE":"127.1387"},{"MEAN_MOTION_DDOT":"0.0000000000000","APOAPSIS":"548.747","SITE":"AFETR","MEAN_ANOMALY":"294.9733","GP_ID":"205819461","CLASSIFICATION_TYPE":"U","ARG_OF_PERICENTER":"65.1487","EPHEMERIS_TYPE":"0","SEMIMAJOR_AXIS":"6925.338","MEAN_ELEMENT_THEORY":"SGP4","INCLINATION":"53.0558","FILE":"3489795","ELEMENT_SET_NO":"999","REF_FRAME":"TEME","PERIAPSIS":"545.658","TLE_LINE2":"2 45535  53.0558 129.4355 0002230  65.1487 294.9733 15.06403564118851","MEAN_MOTION_DOT":"-0.00000444","NORAD_CAT_ID":"45535","BSTAR":"-0.00001088600000","LAUNCH_DATE":"2020-04-22","PERIOD":"95.592","TLE_LINE1":"1 45535U 20025E   22161.32577811 -.00000444  00000-0 -10886-4 0  9998","OBJECT_NAME":"STARLINK-1350","ECCENTRICITY":"0.00022300","COUNTRY_CODE":"US","OBJECT_TYPE":"PAYLOAD","DECAY_DATE":null,"EPOCH":"2022-06-10T07:49:07.228704","REV_AT_EPOCH":"11885","TIME_SYSTEM":"UTC","CENTER_NAME":"EARTH","RCS_SIZE":"LARGE","OBJECT_ID":"2020-025E","MEAN_MOTION":"15.06403564","RA_OF_ASC_NODE":"129.4355"},{"MEAN_ANOMALY":"296.3810","SITE":"AFETR","APOAPSIS":"548.455","MEAN_MOTION_DDOT":"0.0000000000000","ARG_OF_PERICENTER":"63.7360","CLASSIFICATION_TYPE":"U","GP_ID":"205860445","INCLINATION":"53.0546","MEAN_ELEMENT_THEORY":"SGP4","SEMIMAJOR_AXIS":"6925.364","EPHEMERIS_TYPE":"0","MEAN_MOTION_DOT":"-0.00000476","TLE_LINE2":"2 45536  53.0546 127.6378 0001771  63.7360 296.3810 15.06395022118904","PERIAPSIS":"546.002","REF_FRAME":"TEME","ELEMENT_SET_NO":"999","FILE":"3490466","PERIOD":"95.592","LAUNCH_DATE":"2020-04-22","BSTAR":"-0.00001302700000","NORAD_CAT_ID":"45536","OBJECT_TYPE":"PAYLOAD","COUNTRY_CODE":"US","ECCENTRICITY":"0.00017710","TLE_LINE1":"1 45536U 20025F   22161.72755338 -.00000476  00000-0 -13027-4 0  9990","OBJECT_NAME":"STARLINK-1352","RCS_SIZE":"LARGE","REV_AT_EPOCH":"11890","TIME_SYSTEM":"UTC","CENTER_NAME":"EARTH","DECAY_DATE":null,"EPOCH":"2022-06-10T17:27:40.612032","RA_OF_ASC_NODE":"127.6378","MEAN_MOTION":"15.06395022","OBJECT_ID":"2020-025F"},{"CLASSIFICATION_TYPE":"U","GP_ID":"205820962","ARG_OF_PERICENTER":"65.0063","SITE":"AFETR","MEAN_ANOMALY":"295.1355","MEAN_MOTION_DDOT":"0.0000000000000","APOAPSIS":"496.112","FILE":"3489795","ELEMENT_SET_NO":"999","TLE_LINE2":"2 45537  52.9747  83.7218 0004070  65.0063 295.1355 15.24158431119476","MEAN_MOTION_DOT":"0.00020607","PERIAPSIS":"490.519","REF_FRAME":"TEME","INCLINATION":"52.9747","MEAN_ELEMENT_THEORY":"SGP4","EPHEMERIS_TYPE":"0","SEMIMAJOR_AXIS":"6871.451","COUNTRY_CODE":"US","ECCENTRICITY":"0.00040700","TLE_LINE1":"1 45537U 20025G   22161.48179544  .00020607  00000-0  84705-3 0  9999","OBJECT_NAME":"STARLINK-1353","OBJECT_TYPE":"PAYLOAD","NORAD_CAT_ID":"45537","LAUNCH_DATE":"2020-04-22","PERIOD":"94.478","BSTAR":"0.00084705000000","MEAN_MOTION":"15.24158431","OBJECT_ID":"2020-025G","RA_OF_ASC_NODE":"83.7218","REV_AT_EPOCH":"11947","TIME_SYSTEM":"UTC","CENTER_NAME":"EARTH","EPOCH":"2022-06-10T11:33:47.126016","DECAY_DATE":null,"RCS_SIZE":"LARGE"},{"RA_OF_ASC_NODE":"128.1230","MEAN_MOTION":"15.06391629","OBJECT_ID":"2020-025H","RCS_SIZE":"LARGE","REV_AT_EPOCH":"11889","TIME_SYSTEM":"UTC","CENTER_NAME":"EARTH","EPOCH":"2022-06-10T14:53:45.476736","DECAY_DATE":null,"OBJECT_TYPE":"PAYLOAD","COUNTRY_CODE":"US","OBJECT_NAME":"STARLINK-1362","TLE_LINE1":"1 45538U 20025H   22161.62066524 -.00000253  00000-0  19391-5 0  9996","ECCENTRICITY":"0.00017410","PERIOD":"95.593","LAUNCH_DATE":"2020-04-22","BSTAR":"0.00000193910000","NORAD_CAT_ID":"45538","MEAN_MOTION_DOT":"-0.00000253","TLE_LINE2":"2 45538  53.0553 128.1230 0001741  59.1050 301.0111 15.06391629118894","PERIAPSIS":"546.034","REF_FRAME":"TEME","ELEMENT_SET_NO":"999","FILE":"3490466","INCLINATION":"53.0553","MEAN_ELEMENT_THEORY":"SGP4","SEMIMAJOR_AXIS":"6925.374","EPHEMERIS_TYPE":"0","ARG_OF_PERICENTER":"59.1050","CLASSIFICATION_TYPE":"U","GP_ID":"205861947","SITE":"AFETR","MEAN_ANOMALY":"301.0111","APOAPSIS":"548.445","MEAN_MOTION_DDOT":"0.0000000000000"},{"INCLINATION":"53.0425","MEAN_ELEMENT_THEORY":"SGP4","SEMIMAJOR_AXIS":"6709.201","EPHEMERIS_TYPE":"0","MEAN_MOTION_DOT":"0.00067904","TLE_LINE2":"2 45539  53.0425 288.5625 0011565 344.6102  15.4565 15.79779876121670","PERIAPSIS":"323.307","REF_FRAME":"TEME","ELEMENT_SET_NO":"999","FILE":"3490466","MEAN_ANOMALY":"15.4565","SITE":"AFETR","MEAN_MOTION_DDOT":"0.0000000000000","APOAPSIS":"338.825","ARG_OF_PERICENTER":"344.6102","CLASSIFICATION_TYPE":"U","GP_ID":"205860695","RCS_SIZE":"LARGE","REV_AT_EPOCH":"12167","TIME_SYSTEM":"UTC","CENTER_NAME":"EARTH","DECAY_DATE":null,"EPOCH":"2022-06-10T17:57:46.514592","RA_OF_ASC_NODE":"288.5625","MEAN_MOTION":"15.79779876","OBJECT_ID":"2020-025J","PERIOD":"91.152","LAUNCH_DATE":"2020-04-22","BSTAR":"0.00036096000000","NORAD_CAT_ID":"45539","OBJECT_TYPE":"PAYLOAD","COUNTRY_CODE":"US","TLE_LINE1":"1 45539U 20025J   22161.74845503  .00067904  00000-0  36096-3 0  9996","OBJECT_NAME":"STARLINK-1367","ECCENTRICITY":"0.00115650"},{"MEAN_MOTION_DDOT":"0.0000000000000","APOAPSIS":"548.721","SITE":"AFETR","MEAN_ANOMALY":"300.8670","ARG_OF_PERICENTER":"59.2533","GP_ID":"205860945","CLASSIFICATION_TYPE":"U","EPHEMERIS_TYPE":"0","SEMIMAJOR_AXIS":"6925.353","INCLINATION":"53.0559","MEAN_ELEMENT_THEORY":"SGP4","PERIAPSIS":"545.714","REF_FRAME":"TEME","TLE_LINE2":"2 45540  53.0559 128.2193 0002171  59.2533 300.8670 15.06398646118889","MEAN_MOTION_DOT":"-0.00001598","FILE":"3490466","ELEMENT_SET_NO":"999","BSTAR":"-0.00008837100000","LAUNCH_DATE":"2020-04-22","PERIOD":"95.592","NORAD_CAT_ID":"45540","OBJECT_TYPE":"PAYLOAD","OBJECT_NAME":"STARLINK-1368","TLE_LINE1":"1 45540U 20025K   22161.59854537 -.00001598  00000-0 -88371-4 0  9991","ECCENTRICITY":"0.00021710","COUNTRY_CODE":"US","RCS_SIZE":"LARGE","DECAY_DATE":null,"EPOCH":"2022-06-10T14:21:54.319968","CENTER_NAME":"EARTH","REV_AT_EPOCH":"11888","TIME_SYSTEM":"UTC","RA_OF_ASC_NODE":"128.2193","OBJECT_ID":"2020-025K","MEAN_MOTION":"15.06398646"},{"OBJECT_ID":"2020-025L","MEAN_MOTION":"15.06399250","RA_OF_ASC_NODE":"126.9986","DECAY_DATE":null,"EPOCH":"2022-06-10T20:49:22.579680","CENTER_NAME":"EARTH","REV_AT_EPOCH":"11892","TIME_SYSTEM":"UTC","RCS_SIZE":"LARGE","ECCENTRICITY":"0.00025140","TLE_LINE1":"1 45541U 20025L   22161.86762245 -.00001129  00000-0 -56849-4 0  9991","OBJECT_NAME":"STARLINK-1369","COUNTRY_CODE":"US","OBJECT_TYPE":"PAYLOAD","NORAD_CAT_ID":"45541","BSTAR":"-0.00005684900000","LAUNCH_DATE":"2020-04-22","PERIOD":"95.592","FILE":"3490466","ELEMENT_SET_NO":"999","PERIAPSIS":"545.475","REF_FRAME":"TEME","TLE_LINE2":"2 45541  53.0556 126.9986 0002514  54.4292 305.6931 15.06399250118922","MEAN_MOTION_DOT":"-0.00001129","EPHEMERIS_TYPE":"0","SEMIMAJOR_AXIS":"6925.351","INCLINATION":"53.0556","MEAN_ELEMENT_THEORY":"SGP4","GP_ID":"205861197","CLASSIFICATION_TYPE":"U","ARG_OF_PERICENTER":"54.4292","MEAN_MOTION_DDOT":"0.0000000000000","APOAPSIS":"548.957","SITE":"AFETR","MEAN_ANOMALY":"305.6931"},{"MEAN_MOTION_DDOT":"0.0000000000000","APOAPSIS":"548.504","SITE":"AFETR","MEAN_ANOMALY":"294.8053","ARG_OF_PERICENTER":"65.3134","GP_ID":"205861448","CLASSIFICATION_TYPE":"U","EPHEMERIS_TYPE":"0","SEMIMAJOR_AXIS":"6925.322","INCLINATION":"53.0556","MEAN_ELEMENT_THEORY":"SGP4","REF_FRAME":"TEME","PERIAPSIS":"545.869","TLE_LINE2":"2 45542  53.0556 128.0610 0001902  65.3134 294.8053 15.06408788118893","MEAN_MOTION_DOT":"-0.00000471","FILE":"3490466","ELEMENT_SET_NO":"999","BSTAR":"-0.00001270200000","LAUNCH_DATE":"2020-04-22","PERIOD":"95.592","NORAD_CAT_ID":"45542","OBJECT_TYPE":"PAYLOAD","TLE_LINE1":"1 45542U 20025M   22161.63539654 -.00000471  00000-0 -12702-4 0  9992","OBJECT_NAME":"STARLINK-1371","ECCENTRICITY":"0.00019020","COUNTRY_CODE":"US","RCS_SIZE":"LARGE","EPOCH":"2022-06-10T15:14:58.261056","DECAY_DATE":null,"REV_AT_EPOCH":"11889","CENTER_NAME":"EARTH","TIME_SYSTEM":"UTC","RA_OF_ASC_NODE":"128.0610","OBJECT_ID":"2020-025M","MEAN_MOTION":"15.06408788"},{"OBJECT_TYPE":"PAYLOAD","OBJECT_NAME":"STARLINK-1372","TLE_LINE1":"1 45543U 20025N   22161.60591938 -.00000102  00000-0  12085-4 0  9997","ECCENTRICITY":"0.00021680","COUNTRY_CODE":"US","BSTAR":"0.00001208500000","PERIOD":"95.592","LAUNCH_DATE":"2020-04-22","NORAD_CAT_ID":"45543","RA_OF_ASC_NODE":"128.1928","OBJECT_ID":"2020-025N","MEAN_MOTION":"15.06398900","RCS_SIZE":"LARGE","EPOCH":"2022-06-10T14:32:31.434432","DECAY_DATE":null,"REV_AT_EPOCH":"11798","TIME_SYSTEM":"UTC","CENTER_NAME":"EARTH","ARG_OF_PERICENTER":"56.4225","GP_ID":"205860196","CLASSIFICATION_TYPE":"U","APOAPSIS":"548.718","MEAN_MOTION_DDOT":"0.0000000000000","SITE":"AFETR","MEAN_ANOMALY":"303.6971","REF_FRAME":"TEME","PERIAPSIS":"545.716","MEAN_MOTION_DOT":"-0.00000102","TLE_LINE2":"2 45543  53.0557 128.1928 0002168  56.4225 303.6971 15.06398900117986","ELEMENT_SET_NO":"999","FILE":"3490466","SEMIMAJOR_AXIS":"6925.352","EPHEMERIS_TYPE":"0","INCLINATION":"53.0557","MEAN_ELEMENT_THEORY":"SGP4"}];
